stk.v.8.0

BEGIN Ephemeris

NumberofEphemerisPoints	1000
ScenarioEpoch			26 Mar 2014 17:00:00.0000
InterpolationMethod		Lagrange
InterpolationOrder		5
DistanceUnit				Meters
CoordinateSystem		Custom RTCS Satellite/Target
CoordianteSystemEpoch	26 Mar 2014 17:00:00.0000

BEGIN SegmentBoundaryTimes
5383.183183
10787.387387
16191.591592
21595.795796
END SegmentBoundaryTimes

EphemerisTimePosVel

6.000000	-0.000000	-0.000000	-0.000000	-0.003170	-0.000546	-0.002961
33.021021	-0.086445	-0.012266	-0.080329	-0.003201	-0.000357	-0.002959
60.042042	-0.173693	-0.019378	-0.160586	-0.003229	-0.000167	-0.002955
87.063063	-0.261668	-0.021291	-0.240703	-0.003255	0.000026	-0.002949
114.084084	-0.350293	-0.017962	-0.320608	-0.003277	0.000220	-0.002940
141.105105	-0.439490	-0.009357	-0.400230	-0.003297	0.000415	-0.002928
168.126126	-0.529179	0.004557	-0.479500	-0.003313	0.000611	-0.002914
195.147147	-0.619282	0.023806	-0.558348	-0.003327	0.000808	-0.002897
222.168168	-0.709720	0.048412	-0.636704	-0.003338	0.001006	-0.002878
249.189189	-0.800413	0.078394	-0.714499	-0.003346	0.001204	-0.002856
276.210210	-0.891281	0.113763	-0.791666	-0.003351	0.001403	-0.002831
303.231231	-0.982244	0.154528	-0.868136	-0.003353	0.001602	-0.002804
330.252252	-1.073222	0.200693	-0.943841	-0.003352	0.001801	-0.002775
357.273273	-1.164136	0.252255	-1.018715	-0.003348	0.002000	-0.002743
384.294294	-1.254904	0.309208	-1.092693	-0.003341	0.002198	-0.002709
411.315315	-1.345447	0.371542	-1.165708	-0.003332	0.002396	-0.002672
438.336336	-1.435686	0.439241	-1.237697	-0.003319	0.002593	-0.002633
465.357357	-1.525540	0.512283	-1.308597	-0.003303	0.002790	-0.002592
492.378378	-1.614932	0.590645	-1.378344	-0.003285	0.002985	-0.002548
519.399399	-1.703781	0.674296	-1.446878	-0.003263	0.003180	-0.002502
546.420420	-1.792010	0.763202	-1.514138	-0.003239	0.003373	-0.002454
573.441441	-1.879541	0.857324	-1.580065	-0.003212	0.003564	-0.002404
600.462462	-1.966298	0.956618	-1.644600	-0.003182	0.003754	-0.002352
627.483483	-2.052203	1.061035	-1.707688	-0.003149	0.003942	-0.002298
654.504505	-2.137181	1.170523	-1.769273	-0.003114	0.004128	-0.002241
681.525526	-2.221158	1.285025	-1.829299	-0.003075	0.004311	-0.002183
708.546547	-2.304058	1.404479	-1.887716	-0.003034	0.004493	-0.002122
735.567568	-2.385811	1.528820	-1.944470	-0.002991	0.004671	-0.002060
762.588589	-2.466342	1.657976	-1.999512	-0.002944	0.004847	-0.001996
789.609610	-2.545582	1.791873	-2.052794	-0.002895	0.005021	-0.001931
816.630631	-2.623461	1.930432	-2.104269	-0.002844	0.005191	-0.001863
843.651652	-2.699910	2.073572	-2.153891	-0.002790	0.005358	-0.001794
870.672673	-2.774861	2.221204	-2.201616	-0.002734	0.005522	-0.001723
897.693694	-2.848250	2.373238	-2.247404	-0.002675	0.005683	-0.001651
924.714715	-2.920011	2.529580	-2.291212	-0.002614	0.005840	-0.001577
951.735736	-2.990081	2.690130	-2.333004	-0.002550	0.005993	-0.001502
978.756757	-3.058398	2.854787	-2.372741	-0.002485	0.006142	-0.001426
1005.777778	-3.124902	3.023445	-2.410390	-0.002417	0.006288	-0.001349
1032.798799	-3.189535	3.195994	-2.445916	-0.002347	0.006429	-0.001270
1059.819820	-3.252240	3.372322	-2.479289	-0.002275	0.006566	-0.001190
1086.840841	-3.312962	3.552312	-2.510479	-0.002200	0.006699	-0.001109
1113.861862	-3.371646	3.735846	-2.539459	-0.002124	0.006827	-0.001027
1140.882883	-3.428242	3.922801	-2.566203	-0.002047	0.006951	-0.000944
1167.903904	-3.482700	4.113052	-2.590688	-0.001967	0.007070	-0.000860
1194.924925	-3.534971	4.306470	-2.612892	-0.001885	0.007185	-0.000776
1221.945946	-3.585010	4.502923	-2.632796	-0.001802	0.007294	-0.000691
1248.966967	-3.632772	4.702279	-2.650381	-0.001718	0.007398	-0.000605
1275.987988	-3.678216	4.904401	-2.665634	-0.001631	0.007498	-0.000519
1303.009009	-3.721301	5.109150	-2.678539	-0.001544	0.007592	-0.000432
1330.030030	-3.761991	5.316385	-2.689086	-0.001455	0.007681	-0.000345
1357.051051	-3.800247	5.525963	-2.697266	-0.001365	0.007765	-0.000258
1384.072072	-3.836038	5.737738	-2.703071	-0.001273	0.007843	-0.000170
1411.093093	-3.869332	5.951563	-2.706496	-0.001181	0.007916	-0.000082
1438.114114	-3.900099	6.167289	-2.707538	-0.001087	0.007983	0.000006
1465.135135	-3.928312	6.384766	-2.706197	-0.000992	0.008045	0.000093
1492.156156	-3.953946	6.603840	-2.702472	-0.000897	0.008101	0.000181
1519.177177	-3.976979	6.824358	-2.696369	-0.000801	0.008151	0.000269
1546.198198	-3.997391	7.046166	-2.687892	-0.000704	0.008196	0.000356
1573.219219	-4.015163	7.269107	-2.677048	-0.000606	0.008235	0.000443
1600.240240	-4.030280	7.493024	-2.663848	-0.000508	0.008268	0.000530
1627.261261	-4.042728	7.717758	-2.648302	-0.000409	0.008295	0.000616
1654.282282	-4.052497	7.943152	-2.630424	-0.000311	0.008316	0.000702
1681.303303	-4.059578	8.169047	-2.610231	-0.000211	0.008332	0.000787
1708.324324	-4.063965	8.395281	-2.587740	-0.000112	0.008341	0.000871
1735.345345	-4.065654	8.621696	-2.562970	-0.000012	0.008345	0.000955
1762.366366	-4.064643	8.848131	-2.535944	0.000087	0.008343	0.001037
1789.387387	-4.060934	9.074425	-2.506685	0.000186	0.008335	0.001119
1816.408408	-4.054529	9.300420	-2.475219	0.000286	0.008321	0.001200
1843.429429	-4.045434	9.525955	-2.441574	0.000385	0.008301	0.001280
1870.450450	-4.033658	9.750870	-2.405780	0.000483	0.008275	0.001358
1897.471471	-4.019210	9.975007	-2.367867	0.000582	0.008244	0.001436
1924.492492	-4.002103	10.198208	-2.327870	0.000679	0.008206	0.001512
1951.513514	-3.982353	10.420315	-2.285823	0.000776	0.008163	0.001587
1978.534535	-3.959977	10.641172	-2.241764	0.000873	0.008114	0.001660
2005.555556	-3.934994	10.860623	-2.195731	0.000968	0.008059	0.001732
2032.576577	-3.907426	11.078515	-2.147765	0.001063	0.007999	0.001803
2059.597598	-3.877299	11.294695	-2.097908	0.001157	0.007933	0.001872
2086.618619	-3.844637	11.509012	-2.046204	0.001250	0.007862	0.001939
2113.639640	-3.809470	11.721316	-1.992699	0.001342	0.007785	0.002004
2140.660661	-3.771830	11.931459	-1.937439	0.001432	0.007703	0.002068
2167.681682	-3.731748	12.139296	-1.880473	0.001522	0.007615	0.002130
2194.702703	-3.689261	12.344683	-1.821852	0.001610	0.007522	0.002190
2221.723724	-3.644406	12.547478	-1.761627	0.001696	0.007424	0.002248
2248.744745	-3.597222	12.747542	-1.699851	0.001781	0.007321	0.002304
2275.765766	-3.547751	12.944737	-1.636578	0.001865	0.007213	0.002359
2302.786787	-3.496036	13.138930	-1.571864	0.001947	0.007099	0.002411
2329.807808	-3.442123	13.329988	-1.505767	0.002027	0.006982	0.002461
2356.828829	-3.386060	13.517783	-1.438344	0.002105	0.006859	0.002508
2383.849850	-3.327895	13.702188	-1.369654	0.002182	0.006732	0.002554
2410.870871	-3.267681	13.883080	-1.299759	0.002256	0.006600	0.002597
2437.891892	-3.205469	14.060339	-1.228719	0.002329	0.006464	0.002638
2464.912913	-3.141315	14.233848	-1.156598	0.002399	0.006324	0.002677
2491.933934	-3.075275	14.403493	-1.083458	0.002468	0.006179	0.002713
2518.954955	-3.007407	14.569165	-1.009365	0.002534	0.006031	0.002747
2545.975976	-2.937772	14.730757	-0.934382	0.002598	0.005878	0.002779
2572.996997	-2.866430	14.888165	-0.858577	0.002660	0.005722	0.002808
2600.018018	-2.793445	15.041290	-0.782017	0.002719	0.005563	0.002835
2627.039039	-2.718879	15.190036	-0.704767	0.002776	0.005400	0.002859
2654.060060	-2.642800	15.334313	-0.626898	0.002831	0.005233	0.002880
2681.081081	-2.565274	15.474031	-0.548476	0.002883	0.005064	0.002899
2708.102102	-2.486370	15.609106	-0.469571	0.002932	0.004891	0.002916
2735.123123	-2.406156	15.739460	-0.390253	0.002979	0.004716	0.002930
2762.144144	-2.324704	15.865017	-0.310592	0.003024	0.004538	0.002941
2789.165165	-2.242084	15.985705	-0.230657	0.003065	0.004357	0.002950
2816.186186	-2.158371	16.101457	-0.150519	0.003104	0.004174	0.002956
2843.207207	-2.073638	16.212210	-0.070248	0.003140	0.003989	0.002960
2870.228228	-1.987958	16.317906	0.010085	0.003174	0.003801	0.002961
2897.249249	-1.901409	16.418491	0.090408	0.003205	0.003612	0.002959
2924.270270	-1.814065	16.513916	0.170652	0.003232	0.003421	0.002955
2951.291291	-1.726004	16.604136	0.250746	0.003257	0.003228	0.002948
2978.312312	-1.637303	16.689111	0.330619	0.003280	0.003034	0.002939
3005.333333	-1.548040	16.768804	0.410201	0.003299	0.002839	0.002927
3032.354354	-1.458295	16.843186	0.489422	0.003315	0.002643	0.002912
3059.375375	-1.368145	16.912229	0.568212	0.003329	0.002446	0.002895
3086.396396	-1.277671	16.975912	0.646501	0.003339	0.002248	0.002875
3113.417417	-1.186951	17.034218	0.724222	0.003347	0.002049	0.002853
3140.438438	-1.096067	17.087135	0.801304	0.003351	0.001851	0.002828
3167.459459	-1.005098	17.134655	0.877682	0.003353	0.001652	0.002801
3194.480480	-0.914123	17.176776	0.953286	0.003352	0.001453	0.002771
3221.501502	-0.823224	17.213500	1.028052	0.003347	0.001254	0.002739
3248.522523	-0.732479	17.244834	1.101912	0.003340	0.001056	0.002704
3275.543544	-0.641970	17.270789	1.174802	0.003330	0.000858	0.002667
3302.564565	-0.551775	17.291382	1.246658	0.003317	0.000660	0.002628
3329.585586	-0.461974	17.306634	1.317416	0.003301	0.000464	0.002587
3356.606607	-0.372647	17.316569	1.387014	0.003282	0.000269	0.002543
3383.627628	-0.283871	17.321220	1.455392	0.003260	0.000074	0.002497
3410.648649	-0.195725	17.320620	1.522487	0.003236	-0.000118	0.002448
3437.669670	-0.108287	17.314810	1.588243	0.003208	-0.000310	0.002398
3464.690691	-0.021633	17.303834	1.652600	0.003178	-0.000499	0.002345
3491.711712	0.064160	17.287741	1.715502	0.003145	-0.000687	0.002291
3518.732733	0.149016	17.266583	1.776894	0.003109	-0.000872	0.002234
3545.753754	0.232862	17.240419	1.836722	0.003070	-0.001056	0.002175
3572.774775	0.315622	17.209311	1.894932	0.003029	-0.001237	0.002115
3599.795796	0.397225	17.173326	1.951474	0.002985	-0.001415	0.002052
3626.816817	0.477599	17.132534	2.006298	0.002938	-0.001591	0.001988
3653.837838	0.556671	17.087011	2.059356	0.002889	-0.001764	0.001922
3680.858859	0.634374	17.036835	2.110600	0.002837	-0.001934	0.001854
3707.879880	0.710639	16.982090	2.159986	0.002783	-0.002101	0.001785
3734.900901	0.785398	16.922864	2.207471	0.002726	-0.002264	0.001714
END Ephemeris